ONEWEB-0674             
1 55833U 23029AP  24137.54602063  .00000138  00000+0  33820-3 0  9993
2 55833  87.8955  81.2723 0001401  90.6293 269.4997 13.14505283 59356
ONEWEB-0675             
1 55834U 23029AQ  24137.62754786  .00000086  00000+0  18252-3 0  9997
2 55834  87.9135  96.5358 0002477  79.5274 280.6138 13.19728448 58479
ONEWEB-0537             
1 56046U 23043A   24137.17307810  .00000052  00000+0  10166-3 0  9990
2 56046  87.9134  20.4532 0002051  73.3056 286.8300 13.16593784 58695
ONEWEB-0538             
1 56047U 23043B   24137.39473557 -.00000031  00000+0 -11460-3 0  9994
2 56047  87.9136  20.4284 0002132  84.2045 275.9329 13.16593664 58733
ONEWEB-0546             
1 56048U 23043C   24137.61006040  .00000011  00000+0 -54243-5 0  9994
2 56048  87.9136  20.3492 0002106  56.2408 303.8924 13.16594923 58750
ONEWEB-0547             
1 56049U 23043D   24137.43999662  .00000077  00000+0  15597-3 0  9994
2 56049  87.9319  35.6080 0002398  81.2571 278.8835 13.21826589 57593
ONEWEB-0548             
1 56050U 23043E   24137.40739029 -.00000277  00000+0 -75751-3 0  9994
2 56050  87.9139  20.4329 0001235  87.6383 272.4890 13.16593689 58726
